Latitude,Longitude,Pincode,Location,Cluster Labels,1st Most Common Venue,2nd Most Common Venue,3rd Most Common Venue,4th Most Common Venue,5th Most Common Venue,6th Most Common Venue,7th Most Common Venue,8th Most Common Venue,9th Most Common Venue,10th Most Common Venue
12.7572271,77.6472795,560036,Devasandra,3.0,Henan Restaurant,Yoga Studio,Diner,Financial or Legal Service,Field,Fast Food Restaurant,Farmers Market,Event Space,Event Service,English Restaurant
12.7782588,77.7712834,562107,Attibele,4.0,ATM,Castle,South Indian Restaurant,Indian Restaurant,Dry Cleaner,Dumpling Restaurant,Eastern European Restaurant,Electronics Store,English Restaurant,Event Space
12.7852528,77.6380931,560105,"Jigani,Jigani",1.0,ATM,Indian Restaurant,Health Food Store,Pharmacy,History Museum,Financial or Legal Service,Fast Food Restaurant,Farmers Market,Event Space,Event Service
12.7898553,77.7514537,562107,Yadavanahalli,1.0,Diner,Hotel Bar,Resort,Restaurant,Cosmetics Shop,Dive Bar,Field,Fast Food Restaurant,Farmers Market,Event Space
12.799122,77.68060437921741,562106,Anekal,1.0,ATM,Flower Shop,Financial or Legal Service,Field,Fast Food Restaurant,Farmers Market,Event Space,Event Service,English Restaurant,Electronics Store
12.8060574,77.7862873,562107,Bidaraguppe,1.0,Pharmacy,Dry Cleaner,Flower Shop,Financial or Legal Service,Field,Fast Food Restaurant,Farmers Market,Event Space,Event Service,English Restaurant
12.8188956,77.6384041,562106,Hulimangala,1.0,Pizza Place,Flower Shop,Financial or Legal Service,Field,Fast Food Restaurant,Farmers Market,Event Space,Event Service,English Restaurant,Electronics Store
12.8264929,77.5864733,560076,Bannerghatta Road,1.0,Resort,Yoga Studio,Diner,Financial or Legal Service,Field,Fast Food Restaurant,Farmers Market,Event Space,Event Service,English Restaurant
12.8468545,77.6769267,560100,Electronics City,1.0,Bus Stop,Café,Hyderabadi Restaurant,Coworking Space,Vegetarian / Vegan Restaurant,Diner,Basketball Court,English Restaurant,Dumpling Restaurant,Eastern European Restaurant
12.8600866,77.7861352,562125,Sarjapura,1.0,Fast Food Restaurant,Movie Theater,Supermarket,Department Store,Yoga Studio,Dive Bar,Field,Farmers Market,Event Space,Event Service
12.8684124,77.59082130918499,560076,Mount St Joseph,1.0,Café,Italian Restaurant,Multiplex,Cosmetics Shop,Bowling Alley,Fast Food Restaurant,Electronics Store,Beer Garden,Rajasthani Restaurant,Shopping Mall
12.8773486,77.6028031,560076,Hulimavu,1.0,Café,Bakery,Fast Food Restaurant,Movie Theater,Multiplex,Indian Restaurant,Ice Cream Shop,South Indian Restaurant,Clothing Store,Electronics Store
12.8777098,77.7534769,562125,Dommasandra,1.0,Bakery,Dry Cleaner,Hobby Shop,Supermarket,Athletics & Sports,Bus Station,Optical Shop,Eastern European Restaurant,Dumpling Restaurant,Yoga Studio
12.8792861,77.5697529,560062,Konanakunte,4.0,Indian Restaurant,ATM,Bus Station,Department Store,Vegetarian / Vegan Restaurant,English Restaurant,Dumpling Restaurant,Eastern European Restaurant,Electronics Store,Event Space
12.8850574,77.5415617,560061,Subramanyapura,4.0,Indian Restaurant,Café,South Indian Restaurant,Theater,Pool,Garden,Event Space,Event Service,Farmers Market,English Restaurant
12.8857355,77.5557448,560062,Doddakallasandra,1.0,Bus Station,Indie Movie Theater,South Indian Restaurant,Arts & Entertainment,Tennis Court,English Restaurant,Dry Cleaner,Dumpling Restaurant,Eastern European Restaurant,Electronics Store
12.8975365,77.62807526594204,560068,Hongasandra,4.0,Indian Restaurant,Pizza Place,Hotel Bar,Hotel Pool,Clothing Store,Bus Station,English Restaurant,Dry Cleaner,Dumpling Restaurant,Eastern European Restaurant
12.897971,77.5700846,560078,Yelachenahalli,1.0,Café,Pizza Place,Department Store,Athletics & Sports,Metro Station,Motorcycle Shop,Fast Food Restaurant,Farmers Market,Event Space,Event Service
12.9072515,77.5782713,560078,"Jp Nagar Iii Phase,JP Nagar VIII phase",4.0,Indian Restaurant,Chinese Restaurant,Fast Food Restaurant,Coffee Shop,Diner,Breakfast Spot,Metro Station,Mexican Restaurant,Snack Place,Sandwich Place
12.9081487,77.5553179,560078,Kumaraswamy Layout,1.0,Fast Food Restaurant,Department Store,Indian Restaurant,Bakery,Sandwich Place,Breakfast Spot,Sports Bar,Chinese Restaurant,Burger Joint,Ice Cream Shop
12.9089453,77.6239038,560068,Bommanahalli,4.0,Indian Restaurant,South Indian Restaurant,Tea Room,Bus Station,Auto Garage,Chettinad Restaurant,Café,Vegetarian / Vegan Restaurant,Clothing Store,Coffee Shop
12.9095576,77.386642,562130,Chunchanakuppe,2.0,Park,Indian Restaurant,Yoga Studio,Dive Bar,Financial or Legal Service,Field,Fast Food Restaurant,Farmers Market,Event Space,Event Service
12.9096941,77.5866067,560078,J P Nagar,4.0,Indian Restaurant,Fast Food Restaurant,Chinese Restaurant,Coffee Shop,Snack Place,Café,Ice Cream Shop,Women's Store,Sandwich Place,Brewery
12.9116225,77.6388622,560102,HSR Layout,4.0,Indian Restaurant,Café,Snack Place,Pizza Place,Ice Cream Shop,Department Store,Vegetarian / Vegan Restaurant,Liquor Store,Chinese Restaurant,Bistro
12.9121916,77.5476337,560061,Chikkalasandra,1.0,Department Store,Café,Indian Restaurant,Bus Station,Sports Bar,Bakery,Restaurant,Paintball Field,Pizza Place,Event Service
12.9151131,77.6006286,560076,Mico Layout,4.0,Indian Restaurant,Café,Snack Place,Coffee Shop,Fast Food Restaurant,Shopping Mall,Asian Restaurant,Chinese Restaurant,Multiplex,Bakery
12.9152208,77.573598,560050,Banashankari,4.0,Indian Restaurant,Café,Bakery,Diner,Breakfast Spot,Fast Food Restaurant,Park,South Indian Restaurant,Bus Stop,Karnataka Restaurant
12.92069395,77.61442100198076,560068,Madivala,4.0,Indian Restaurant,Café,Fast Food Restaurant,Ice Cream Shop,Sandwich Place,Chinese Restaurant,Pizza Place,Indie Movie Theater,Coffee Shop,Park
12.9239878,77.5204576,560009,K. G. Road,1.0,Pizza Place,Café,Coffee Shop,Nightclub,Sandwich Place,Food Court,Soccer Field,Lake,Beer Garden,Multiplex
12.925464000000002,77.62088465345457,560034,Kendriya Sadan,4.0,Indian Restaurant,Café,Coffee Shop,Fast Food Restaurant,Kerala Restaurant,Ice Cream Shop,Pub,Gym,Italian Restaurant,Indie Movie Theater
12.9277134,77.5514022,560085,Kathriguppe,4.0,Café,Indian Restaurant,Breakfast Spot,Pizza Place,Tea Room,Fast Food Restaurant,South Indian Restaurant,Electronics Store,Motorcycle Shop,Movie Theater
12.928080600000001,77.63071968728623,560034,Koramangala I Block,4.0,Indian Restaurant,Café,Italian Restaurant,Pub,Bakery,Ice Cream Shop,Coffee Shop,Pizza Place,Breakfast Spot,Bar
12.928367,77.5905691,560041,Tilaknagar,4.0,Indian Restaurant,Café,Chinese Restaurant,Fast Food Restaurant,Ice Cream Shop,Jewelry Store,Pizza Place,Coffee Shop,Restaurant,Lounge
12.9292731,77.5824229,560041,"Jayanagar,Jayanagar West",4.0,Indian Restaurant,Café,Chinese Restaurant,Ice Cream Shop,Coffee Shop,Lounge,Fast Food Restaurant,Juice Bar,Pizza Place,Hotel
12.9301881,77.5378332,560085,Hosakerehalli,4.0,Pizza Place,Indian Restaurant,Toll Booth,Fast Food Restaurant,Park,Juice Bar,Ice Cream Shop,Yoga Studio,Donut Shop,Dry Cleaner
12.9309732,77.5901342,560055,Milk Colony,4.0,Indian Restaurant,Café,Chinese Restaurant,Fast Food Restaurant,Jewelry Store,Lounge,Juice Bar,Coffee Shop,Pizza Place,Bakery
12.93164,77.6138743,560030,Hosur Road,4.0,Indian Restaurant,Café,Dessert Shop,Chinese Restaurant,Bookstore,Ice Cream Shop,Coffee Shop,Lounge,Brewery,Bar
12.9328504,77.6084306,560029,Taverekere,4.0,Indian Restaurant,Café,Chinese Restaurant,Dessert Shop,Coffee Shop,Bakery,Lounge,Bookstore,Multiplex,Shopping Mall
12.9338349,77.60421851377467,560029,Dharmaram College,4.0,Indian Restaurant,Café,Pizza Place,Multiplex,Fast Food Restaurant,Clothing Store,Donut Shop,Department Store,Coffee Shop,Sandwich Place
12.9351457,77.7047541,560087,Panathur,1.0,Ice Cream Shop,Construction & Landscaping,Train Station,Recreation Center,Athletics & Sports,Department Store,Gym,Café,Food Court,Pizza Place
12.936264999999999,77.58570855784478,560011,Madhavan Park,4.0,Indian Restaurant,Café,Chinese Restaurant,Coffee Shop,Hotel,Juice Bar,Fast Food Restaurant,Salon / Barbershop,Lounge,Electronics Store
12.9401275,77.5508062,560085,Banashankari III Stage,4.0,Coffee Shop,Vegetarian / Vegan Restaurant,Breakfast Spot,Café,Indian Restaurant,Smoke Shop,Hotel,Park,Coworking Space,Dry Cleaner
12.9401439,77.5444995,560085,Girinagar,4.0,Breakfast Spot,Hotel,Indian Restaurant,Vegetarian / Vegan Restaurant,Café,Park,Coffee Shop,Fast Food Restaurant,Field,Dive Bar
12.9413253,77.5212118,560039,Nayandahalli,1.0,Coffee Shop,Fried Chicken Joint,Auto Garage,Bus Station,Road,Clothing Store,Miscellaneous Shop,Farmers Market,Event Space,Event Service
12.9417261,77.5755021,560004,Basavanagudi,4.0,Indian Restaurant,Fast Food Restaurant,Sandwich Place,Ice Cream Shop,Café,Park,Juice Bar,Restaurant,Snack Place,Tea Room
12.9428472,77.6104155,560030,Adugodi,4.0,Indian Restaurant,Lounge,Dessert Shop,Café,Coffee Shop,Juice Bar,Multiplex,Bookstore,Donut Shop,Brewery
12.9454643,77.6805505,560037,Yemalur,4.0,Donut Shop,Fast Food Restaurant,Lounge,Indian Restaurant,Tea Room,Yoga Studio,Financial or Legal Service,Field,Farmers Market,Event Space
12.9465265,77.580016,560004,Lalbagh West,4.0,Indian Restaurant,Café,Bakery,Fast Food Restaurant,Park,Restaurant,Snack Place,Ice Cream Shop,Salon / Barbershop,Tea Room
12.9489339,77.5968273,560027,Wilson Garden,4.0,Indian Restaurant,Coffee Shop,Café,Grocery Store,Pizza Place,Clothing Store,Restaurant,Bus Station,Fast Food Restaurant,Southern / Soul Food Restaurant
12.95062355,77.53655376999247,560026,Deepanjalinagar,4.0,Indian Restaurant,Metro Station,Nightclub,Bus Station,Department Store,Train Station,Breakfast Spot,Event Space,Farmers Market,Event Service
12.9523031,77.830108,560067,Medimallasandra,0.0,Scenic Lookout,Yoga Studio,Dive Bar,Financial or Legal Service,Field,Fast Food Restaurant,Farmers Market,Event Space,Event Service,English Restaurant
12.9528478,77.5819643,560004,Mavalli,4.0,Indian Restaurant,Park,Café,Snack Place,Movie Theater,Bakery,Food Truck,Dessert Shop,Food Court,Restaurant
12.95434485,77.62269547878142,560047,Viveknagar,4.0,Pool,Football Stadium,Fast Food Restaurant,Historic Site,Indian Restaurant,Bus Station,Café,Donut Shop,Dry Cleaner,Dumpling Restaurant
12.9546741,77.5121724,560072,Nagarbhavi,4.0,Indian Restaurant,Café,Bakery,Breakfast Spot,Construction & Landscaping,Restaurant,Andhra Restaurant,Market,South Indian Restaurant,Gym
12.9547553,77.5923087,560002,Bangalore Corporation Building,4.0,Indian Restaurant,Coffee Shop,Café,Botanical Garden,Japanese Restaurant,Vegetarian / Vegan Restaurant,Park,Other Nightlife,Middle Eastern Restaurant,Movie Theater
12.9558969,77.7405826,560066,Ramagondanahalli,1.0,Pizza Place,Multiplex,Shopping Mall,Restaurant,Food Court,Hotel,Café,Indian Restaurant,Bookstore,Rajasthani Restaurant
12.9559165,77.6882298,560037,Marathahalli Colony,4.0,Tea Room,Coffee Shop,Airport Terminal,History Museum,Fast Food Restaurant,Clothing Store,Indian Restaurant,Mexican Restaurant,Fried Chicken Joint,Electronics Store
12.9569966,77.5633682,560018,Chamrajpet,4.0,Indian Restaurant,Department Store,Coffee Shop,Café,Fast Food Restaurant,Breakfast Spot,Big Box Store,Sporting Goods Shop,Movie Theater,Multiplex
12.95825135,77.60912220089108,560025,CMP Centre And School,4.0,Indian Restaurant,Bakery,Hotel,Tea Room,Italian Restaurant,BBQ Joint,Pub,Juice Bar,Mobile Phone Shop,Clothing Store
12.9612736,77.6152935,560047,Austin Town,4.0,Indian Restaurant,Tea Room,Hotel,Shopping Mall,Market,Middle Eastern Restaurant,Soccer Stadium,Donut Shop,Café,Italian Restaurant
12.9623214,77.5057232,560056,Mallathahalli,4.0,Breakfast Spot,Andhra Restaurant,Gym,Bakery,Indian Restaurant,South Indian Restaurant,Café,Market,Field,Financial or Legal Service
12.9624669,77.6381958,560071,Domlur,4.0,Indian Restaurant,Café,Italian Restaurant,Pub,Coffee Shop,Hotel,Restaurant,Lounge,Pizza Place,Sports Bar
12.9626925,77.6041603,560025,Richmond Town,4.0,Indian Restaurant,Hotel,Chinese Restaurant,Pub,Bakery,Café,Bar,Coffee Shop,Middle Eastern Restaurant,Restaurant
12.962940849999999,77.57575988493524,560002,Bangalore Fort,4.0,Indian Restaurant,Theater,Flower Shop,Historic Site,Miscellaneous Shop,Market,South Indian Restaurant,Plaza,General Entertainment,Eastern European Restaurant
12.9629437,77.5494998,560026,Goripalya,1.0,Pizza Place,Dessert Shop,Fast Food Restaurant,Movie Theater,Café,Coworking Space,Creperie,Field,Construction & Landscaping,Farmers Market
12.963787700000001,77.65180275216737,560017,NAL,4.0,Indian Restaurant,Café,Fast Food Restaurant,Department Store,Hotel,Coffee Shop,Bar,Juice Bar,Middle Eastern Restaurant,Chinese Restaurant
12.9680027,77.578642,560053,Chickpet,4.0,Indian Restaurant,Theater,Market,Historic Site,Platform,Dessert Shop,Rajasthani Restaurant,Rest Area,Restaurant,Miscellaneous Shop
12.9684441,77.7187843,560037,Kundalahalli,4.0,Indian Restaurant,Fast Food Restaurant,Hotel,Soccer Field,Asian Restaurant,Breakfast Spot,Food,Market,Food Court,Salon / Barbershop
12.9684724,77.5789181,560002,Avenue Road,4.0,Indian Restaurant,Theater,Historic Site,Platform,Dessert Shop,Rajasthani Restaurant,Rest Area,Restaurant,Miscellaneous Shop,Seafood Restaurant
12.9696365,77.7497448,560066,Whitefield,4.0,Gym / Fitness Center,Bakery,Café,Brewery,Hotel Bar,Restaurant,Grocery Store,Eastern European Restaurant,Kerala Restaurant,Indian Restaurant
12.9697622,77.6053042,560025,Museum Road,4.0,Indian Restaurant,Café,Pub,Brewery,Hotel,Chinese Restaurant,Lounge,Ice Cream Shop,Breakfast Spot,Clothing Store
12.9718886,77.54578883887129,560040,"Vijayanagar,Vijayanagar East",4.0,Indian Restaurant,Snack Place,Department Store,Breakfast Spot,Fast Food Restaurant,Miscellaneous Shop,Food Truck,Bus Station,Multiplex,Bakery
12.9730154,77.6166123,560001,Mahatma Gandhi Road,4.0,Hotel,Café,Indian Restaurant,Clothing Store,Chinese Restaurant,Coffee Shop,Ice Cream Shop,Pub,Shopping Mall,Sandwich Place
12.9732913,77.6404672,560038,Indiranagar,4.0,Indian Restaurant,Pub,Ice Cream Shop,Café,Lounge,Bar,Tea Room,Restaurant,Chinese Restaurant,Cocktail Bar
12.9736132,77.6074716,560001,Brigade Road,4.0,Indian Restaurant,Hotel,Café,Clothing Store,Lounge,Bar,Brewery,Pub,Chinese Restaurant,Ice Cream Shop
12.9736956,77.6536931,560075,New Thippasandra,4.0,Indian Restaurant,Chinese Restaurant,Café,Burger Joint,Bakery,Pub,Sandwich Place,Tea Room,Steakhouse,Bar
12.976959149999999,77.5123160731423,560045,Ramakrishna Hegde Nagar,4.0,Café,Mattress Store,Lighthouse,Yoga Studio,Donut Shop,Financial or Legal Service,Field,Fast Food Restaurant,Farmers Market,Event Space
12.97795955,77.58627810771424,560002,Sri Jayachamarajendra Road,4.0,Indian Restaurant,Hotel,Park,Hotel Bar,Capitol Building,Metro Station,Bookstore,Flea Market,Restaurant,Racetrack
12.9791198,77.5912997,560050,"Ashoknagar,Bangalore,Bangalore City,Bellandur,Dr. Ambedkar Veedhi,K.P.West,Shanthinagar",4.0,Indian Restaurant,Hotel,Lounge,Italian Restaurant,Coffee Shop,Café,Mexican Restaurant,Intersection,Park,Metro Station
12.9793573,77.6946688,560037,Doddanekkundi,1.0,Department Store,Coffee Shop,Sandwich Place,Indian Restaurant,Café,BBQ Joint,Breakfast Spot,Mediterranean Restaurant,Fast Food Restaurant,Burrito Place
12.979745399999999,77.59061672797948,560001,Vidhana Soudha,4.0,Indian Restaurant,Coffee Shop,Hotel,Lounge,Metro Station,Sandwich Place,Park,Café,Intersection,Pizza Place
12.98204705,77.5642294415321,560021,Okalipuram,4.0,Indian Restaurant,Platform,Hotel,BBQ Joint,Bus Station,Motorcycle Shop,Train Station,Metro Station,Clothing Store,Pizza Place
12.9821931,77.6083132,560001,Narayan Pillai Street,4.0,Indian Restaurant,Café,Lounge,Pub,Bar,Clothing Store,Chinese Restaurant,Hotel,Pizza Place,Jewelry Store
12.9823617,77.5226376,560079,Kamakshipalya,1.0,ATM,Breakfast Spot,Fast Food Restaurant,Bus Station,Campground,Donut Shop,Financial or Legal Service,Field,Farmers Market,Event Space
12.9856478,77.6649767,560093,C.V.Raman Nagar,4.0,Indian Restaurant,Department Store,Café,Fast Food Restaurant,Coffee Shop,Clothing Store,Shopping Mall,Food Court,Snack Place,Smoke Shop
12.9882338,77.554883,560010,Rajajinagar,4.0,Indian Restaurant,Café,Bakery,Breakfast Spot,Fast Food Restaurant,BBQ Joint,Asian Restaurant,Park,Hotel,Pizza Place
12.9889098,77.4492453,562130,Kadabagere,2.0,Indian Restaurant,Yoga Studio,Dive Bar,Flea Market,Financial or Legal Service,Field,Fast Food Restaurant,Farmers Market,Event Space,Event Service
12.9890242,77.4718714,560023,Magadi Road,4.0,Auto Workshop,Gas Station,Resort,Circus,Indian Restaurant,Electronics Store,Donut Shop,Dry Cleaner,Dumpling Restaurant,Eastern European Restaurant
12.9908787,77.70512615869652,560010,Industrial Estate,4.0,Indian Restaurant,Gym,Sporting Goods Shop,Bakery,Breakfast Spot,Auto Workshop,Office,Grocery Store,Café,Performing Arts Venue
12.9919033,77.7162015,560048,Hoodi,4.0,Indian Restaurant,Hotel,Coffee Shop,Diner,Cocktail Bar,Soccer Field,Platform,Brewery,Japanese Restaurant,English Restaurant
12.992415999999999,77.5963467,560052,Vasanthnagar,4.0,Indian Restaurant,Coffee Shop,Café,Chinese Restaurant,Intersection,Bakery,Dessert Shop,Italian Restaurant,Pizza Place,Hotel
12.9931876,77.5753419,560020,Seshadripuram,4.0,Indian Restaurant,Café,Clothing Store,Hotel,Ice Cream Shop,Vegetarian / Vegan Restaurant,Fast Food Restaurant,Karnataka Restaurant,Electronics Store,Art Gallery
12.9934976,77.6924156,560048,Mahadevapura,1.0,Clothing Store,Coffee Shop,French Restaurant,Fast Food Restaurant,Donut Shop,Café,Bus Station,Shopping Mall,Bowling Alley,Lounge
12.9937572,77.5391325,560079,Basaveshwaranagar,4.0,Indian Restaurant,Ice Cream Shop,Fast Food Restaurant,Snack Place,Bus Station,Pizza Place,Café,Chinese Restaurant,Juice Bar,Asian Restaurant
12.9954832,77.6208684,560005,Jeevanahalli,4.0,Indian Restaurant,Café,Middle Eastern Restaurant,Chinese Restaurant,Coffee Shop,Pizza Place,Pub,BBQ Joint,Bakery,Ice Cream Shop
12.997803,77.6041749,560046,Benson Town,4.0,Ice Cream Shop,Tea Room,Café,Indian Restaurant,Chinese Restaurant,Event Space,Bookstore,Snack Place,Electronics Store,Food Truck
12.9985767,77.7609716,560067,Kadugodi,1.0,Hotel,Train Station,Pizza Place,Bus Station,Dry Cleaner,Dumpling Restaurant,Eastern European Restaurant,Electronics Store,English Restaurant,Event Service
12.9991087,77.579517,560003,Palace Guttahalli,4.0,Indian Restaurant,Café,Vegetarian / Vegan Restaurant,Hotel,Department Store,Ice Cream Shop,Lounge,Food & Drink Shop,Chaat Place,Plaza
13.0005089,77.6753945,560036,"Krishnarajapuram,Krishnarajapuram R S",1.0,ATM,Bus Station,Fast Food Restaurant,Mattress Store,Indian Restaurant,Donut Shop,Financial or Legal Service,Field,Farmers Market,Event Space
13.0005247,77.5496568,560010,Rajajinagar I Block,4.0,Café,Fast Food Restaurant,Vegetarian / Vegan Restaurant,Indian Restaurant,Chinese Restaurant,Light Rail Station,Electronics Store,Beer Bar,Bakery,Restaurant
13.0026552,77.6347376,560033,Maruthi Sevanagar,1.0,Fast Food Restaurant,Café,Train Station,Multiplex,Lounge,Clothing Store,Shopping Mall,Farmers Market,Event Space,Event Service
13.0027353,77.5703253,560003,"Malleswaram,Malleswaram West",4.0,Indian Restaurant,Vegetarian / Vegan Restaurant,Ice Cream Shop,Coffee Shop,Breakfast Spot,Dessert Shop,Chinese Restaurant,Café,Department Store,South Indian Restaurant
13.0029165,77.5464264,560086,Mahalakshmipuram Layout,4.0,Indian Restaurant,Café,Chinese Restaurant,Vegetarian / Vegan Restaurant,Pizza Place,Fast Food Restaurant,Grocery Store,Clothing Store,Snack Place,Food Truck
13.0077079,77.5795893,560080,Sadashivanagar,4.0,Coffee Shop,Indian Restaurant,Café,Dessert Shop,Department Store,Fast Food Restaurant,Gym,Ice Cream Shop,Flea Market,Nightclub
13.01061485,77.57081951019086,560003,Aranya Bhavan,4.0,Ice Cream Shop,Indian Restaurant,Coffee Shop,Fast Food Restaurant,Vegetarian / Vegan Restaurant,South Indian Restaurant,Café,Department Store,Yoga Studio,Playground
13.0117678,77.6278288,560084,Lingarajapuram,4.0,Kerala Restaurant,Indian Restaurant,Hotel,Paper / Office Supplies Store,Fast Food Restaurant,Andhra Restaurant,Bakery,Burger Joint,Café,Steakhouse
13.0120218,77.6777817,560016,Ramamurthy Nagar,4.0,ATM,Bakery,South Indian Restaurant,Supermarket,Indian Restaurant,English Restaurant,Dumpling Restaurant,Eastern European Restaurant,Electronics Store,Event Space
13.0141618,77.6518539,560043,Banaswadi,4.0,Indian Restaurant,Kerala Restaurant,Café,Department Store,Bus Station,Chinese Restaurant,Bistro,Arts & Crafts Store,Convenience Store,Pizza Place
13.0152581,77.617511,560045,Venkateshapura,1.0,Pharmacy,Pet Store,Indie Movie Theater,Diner,Field,Fast Food Restaurant,Farmers Market,Event Space,Event Service,English Restaurant
13.0194939,77.7660515,560013,H M T,1.0,Department Store,Shopping Plaza,Fast Food Restaurant,Ice Cream Shop,Indian Restaurant,Asian Restaurant,Restaurant,Electronics Store,Dry Cleaner,Dumpling Restaurant
13.0215083,77.7000989,560049,Thambuchetty Palya,4.0,Indian Restaurant,Hotel,Pizza Place,Café,Bakery,Convenience Store,Historic Site,Financial or Legal Service,Fast Food Restaurant,Farmers Market
13.022234699999998,77.56718324768107,560012,Science Institute,4.0,Ice Cream Shop,Indian Restaurant,Chinese Restaurant,Fast Food Restaurant,Coffee Shop,Asian Restaurant,Breakfast Spot,Burger Joint,Sandwich Place,Bar
13.0251833,77.5920609,560032,R T Nagar,4.0,Indian Restaurant,Fast Food Restaurant,Vegetarian / Vegan Restaurant,Pizza Place,Café,Tennis Court,Snack Place,Bistro,Bus Station,Resort
13.0258004,77.714279,560049,Bhattarahalli,4.0,Café,Hotel,Pizza Place,Indian Restaurant,Event Service,Electronics Store,Donut Shop,Dry Cleaner,Dumpling Restaurant,Eastern European Restaurant
13.0273312,77.6601508,560043,Horamavu,1.0,Badminton Court,Athletics & Sports,Andhra Restaurant,Gym,Kerala Restaurant,Department Store,English Restaurant,Dry Cleaner,Dumpling Restaurant,Eastern European Restaurant
13.0284078,77.5408961,560022,Goraguntepalya,1.0,Fast Food Restaurant,Multiplex,Department Store,Seafood Restaurant,Miscellaneous Shop,Food Court,Spa,Bar,Restaurant,Mediterranean Restaurant
13.0300088,77.6208657,560045,Arabic College,4.0,Department Store,Shopping Mall,Pizza Place,North Indian Restaurant,Optical Shop,Indian Restaurant,Pool Hall,Dumpling Restaurant,Dive Bar,Donut Shop
13.030955299999999,77.56485593968172,560054,Msrit,4.0,Indian Restaurant,Ice Cream Shop,Fast Food Restaurant,Chinese Restaurant,Pizza Place,Clothing Store,Burger Joint,Bus Station,Bistro,Breakfast Spot
13.0328884,77.557374,560054,Mathikere,4.0,Indian Restaurant,Café,Diner,Park,Fast Food Restaurant,American Restaurant,Ice Cream Shop,Sandwich Place,Electronics Store,Dry Cleaner
13.0331172,77.734857,560049,Virgonagar,1.0,Athletics & Sports,Breakfast Spot,Lake,University,Yoga Studio,English Restaurant,Dumpling Restaurant,Eastern European Restaurant,Electronics Store,Event Space
13.033377,77.5895227,560024,Anandnagar,4.0,Indian Restaurant,Tennis Court,Breakfast Spot,Park,Snack Place,Motorcycle Shop,Café,Fast Food Restaurant,Pizza Place,Coffee Shop
13.0352777,77.7365655,560026,Avalahalli,1.0,Breakfast Spot,Lake,Athletics & Sports,Yoga Studio,Dry Cleaner,Flea Market,Financial or Legal Service,Field,Fast Food Restaurant,Farmers Market
13.0374647,77.623602,560045,Nagavara,1.0,Pizza Place,Steakhouse,Multiplex,Café,Shopping Mall,Vegetarian / Vegan Restaurant,Andhra Restaurant,Punjabi Restaurant,Bar,Donut Shop
13.0464531,77.5483803,560013,"Jalahalli,Jalahalli East,Jalahalli Village",4.0,Indian Restaurant,Hotel,Hotel Bar,Shopping Mall,Soccer Field,Spa,Restaurant,Italian Restaurant,Intersection,Indie Movie Theater
13.0479497,77.5001349,560073,Nagasandra,1.0,Bakery,Athletics & Sports,Gas Station,Light Rail Station,Yoga Studio,English Restaurant,Eastern European Restaurant,Electronics Store,Event Service,Dry Cleaner
13.0521017,77.6018107,560024,Hebbal Kempapura,1.0,Department Store,Café,Pharmacy,Food Court,Bus Station,Indian Restaurant,Building,Pizza Place,Fast Food Restaurant,Event Space
13.0566493,77.5048222,560073,Bagalgunte,1.0,Pizza Place,Bakery,Restaurant,Convenience Store,Cosmetics Shop,Field,Fast Food Restaurant,Farmers Market,Event Space,Event Service
13.0613601,77.6493895,560077,Kothanur,1.0,Badminton Court,Sandwich Place,Bakery,Stadium,Café,Restaurant,Sporting Goods Shop,Pub,North Indian Restaurant,Pizza Place
13.062073550000001,77.59639164365345,560092,"Byatarayanapura,Byatarayanapura",4.0,Indian Restaurant,Hotel,Ice Cream Shop,Department Store,Brewery,Coffee Shop,Bus Station,Chinese Restaurant,Italian Restaurant,Fast Food Restaurant
13.0665131,77.5966238,560092,Amruthahalli,4.0,Indian Restaurant,Bus Station,Hotel,Pizza Place,Brewery,Ice Cream Shop,Bubble Tea Shop,Fast Food Restaurant,Chinese Restaurant,Department Store
13.0766407,77.5577315,560097,Vidyaranyapura,4.0,Bakery,Department Store,Basketball Court,Pizza Place,Coffee Shop,Ice Cream Shop,Indian Restaurant,Bus Station,Dumpling Restaurant,Eastern European Restaurant
13.0784743,77.6068938,560064,Jakkur,4.0,Clothing Store,Indian Restaurant,Animal Shelter,Café,Yoga Studio,English Restaurant,Dry Cleaner,Dumpling Restaurant,Eastern European Restaurant,Electronics Store
13.089139249999999,77.5827165877116,560106,Yelahanka Satellite Town,4.0,Indian Restaurant,Pizza Place,Resort,Dessert Shop,Bus Station,Yoga Studio,Electronics Store,Dry Cleaner,Dumpling Restaurant,Eastern European Restaurant
13.0895251,77.5563629,560097,Chikkabettahalli,1.0,ATM,Bus Station,Fast Food Restaurant,Pharmacy,Warehouse Store,Convenience Store,Cosmetics Shop,Financial or Legal Service,Field,Construction & Landscaping
13.0994536,77.5680336,560064,Attur,2.0,Indian Restaurant,Bus Station,Snack Place,Yoga Studio,Donut Shop,Financial or Legal Service,Field,Fast Food Restaurant,Farmers Market,Event Space
13.1006982,77.5963454,560064,Yelahanka,1.0,Café,Clothing Store,Food Truck,Chinese Restaurant,Multiplex,Train Station,Ice Cream Shop,Smoke Shop,Vegetarian / Vegan Restaurant,American Restaurant
13.103799,77.6016167,562149,Kannur,1.0,Fast Food Restaurant,Food Truck,Vegetarian / Vegan Restaurant,Farmers Market,Yoga Studio,Dive Bar,Financial or Legal Service,Field,Event Space,Event Service
13.106022,77.5821244,560064,Wheel And Axle Plant,4.0,Café,Bakery,Diner,Gym,Cosmetics Shop,South Indian Restaurant,Indian Restaurant,Department Store,Dry Cleaner,Dumpling Restaurant
13.1067289,77.59970299116564,560064,Kendriya Vihar,1.0,Fast Food Restaurant,Food Truck,Vegetarian / Vegan Restaurant,Train Station,Yoga Studio,Electronics Store,Donut Shop,Dry Cleaner,Dumpling Restaurant,Eastern European Restaurant
13.1214191,77.57086432354477,560064,CRPF Campus Yelahanka,1.0,ATM,Restaurant,Department Store,Coffee Shop,Airport Terminal,Donut Shop,Flea Market,Financial or Legal Service,Field,Fast Food Restaurant
13.1331868,77.6687093,562149,Bagalur,1.0,Memorial Site,Food Truck,Yoga Studio,Donut Shop,Financial or Legal Service,Field,Fast Food Restaurant,Farmers Market,Event Space,Event Service
13.1440103,77.6191241,562157,Hunasamaranahalli,2.0,Indian Restaurant,Coffee Shop,South Indian Restaurant,Dive Bar,Financial or Legal Service,Field,Fast Food Restaurant,Farmers Market,Event Space,Event Service
13.1478621,77.5693207,560064,Singanayakanahalli,4.0,Café,Hotel,Indian Restaurant,Financial or Legal Service,Field,Fast Food Restaurant,Farmers Market,Event Space,Event Service,English Restaurant
13.1691901,77.5639442,560064,Rajanakunte,1.0,Fast Food Restaurant,Spa,Train Station,Yoga Studio,Dive Bar,Financial or Legal Service,Field,Farmers Market,Event Space,Event Service
13.1715801,77.6345704,562157,Chikkajala,1.0,Hotel,Fast Food Restaurant,Bike Shop,Café,Coworking Space,Dry Cleaner,Financial or Legal Service,Field,Convenience Store,Cosmetics Shop
13.1767348,77.6520502,562157,Doddajala,1.0,Hotel,Mountain,Resort,Dive Bar,Financial or Legal Service,Field,Fast Food Restaurant,Farmers Market,Event Space,Event Service
13.2151923,77.6667197,560067,Kannamangala,4.0,Karnataka Restaurant,South Indian Restaurant,Indian Restaurant,Multicuisine Indian Restaurant,Dive Bar,Field,Fast Food Restaurant,Farmers Market,Event Space,Event Service
13.4279345,77.5131493,560087,Gunjur,1.0,Trail,Lake,Yoga Studio,Dive Bar,Financial or Legal Service,Field,Fast Food Restaurant,Farmers Market,Event Space,Event Service
15.3500091,75.1375385,560006,J.C.Nagar,4.0,Shopping Mall,Indian Restaurant,Food Court,Bus Station,Café,Juice Bar,Jewelry Store,Snack Place,Dance Studio,Deli / Bodega
15.3597318,75.1269595,562157,Vidyanagara,4.0,Café,Hotel,Indian Restaurant,Breakfast Spot,Mattress Store,Electronics Store,Food,Cupcake Shop,Dance Studio,Flea Market
